{"fetched_at":"2026-03-30T13:17:50Z","count":15418,"tles":[{"name":"STARLINK-35699","line1":"1 66557U 25268A   26087.70924945  .00032139  00000+0  11704-2 0  9997","line2":"2 66557  42.9978 240.0779 0001180 272.4771  87.5946 15.27633415 20861","category":"Starlink"}]}